{
  "norad_id": 62509,
  "name": "STARLINK-32744",
  "history": [
    {
      "epoch": "2026-03-28T16:31:07.345344Z",
      "apogee_km": 483.6438533035389,
      "perigee_km": 482.3702877411688,
      "latitude_deg": -2.9386408535279632e-06,
      "longitude_deg": 108.09445623022484,
      "height_km": 482.4045573547416,
      "semi_major_axis_km": 6861.144070522354,
      "eccentricity": 9.281e-05,
      "inclination_deg": 43.0007,
      "raan_deg": 181.9802,
      "arg_perigee_deg": 306.5002,
      "mean_anomaly_deg": 53.5764,
      "mean_motion_rev_day": 15.27594035
    }
  ]
}